[{"OBJECT_NAME":"ONEWEB-0538","OBJECT_ID":"2023-043B","EPOCH":"2025-09-04T03:15:25.534944","MEAN_MOTION":13.16594296,"ECCENTRICITY":0.00017292,"INCLINATION":87.8998,"RA_OF_ASC_NODE":285.7914,"ARG_OF_PERICENTER":99.8737,"MEAN_ANOMALY":260.2589,"EPHEMERIS_TYPE":0,"CLASSIFICATION_TYPE":"U","NORAD_CAT_ID":56047,"ELEMENT_SET_NO":999,"REV_AT_EPOCH":12133,"BSTAR":-3.592552e-6,"MEAN_MOTION_DOT":1.1e-7,"MEAN_MOTION_DDOT":0},{"OBJECT_NAME":"ONEWEB-0546","OBJECT_ID":"2023-043C","EPOCH":"2025-09-04T02:57:11.142432","MEAN_MOTION":13.16594017,"ECCENTRICITY":0.00024217,"INCLINATION":87.9008,"RA_OF_ASC_NODE":285.7751,"ARG_OF_PERICENTER":107.7926,"MEAN_ANOMALY":252.347,"EPHEMERIS_TYPE":0,"CLASSIFICATION_TYPE":"U","NORAD_CAT_ID":56048,"ELEMENT_SET_NO":999,"REV_AT_EPOCH":12132,"BSTAR":4.0724509e-5,"MEAN_MOTION_DOT":2.8e-7,"MEAN_MOTION_DDOT":0},{"OBJECT_NAME":"ONEWEB-0547","OBJECT_ID":"2023-043D","EPOCH":"2025-09-04T04:37:32.930400","MEAN_MOTION":13.21824457,"ECCENTRICITY":0.00017964,"INCLINATION":87.9224,"RA_OF_ASC_NODE":301.0459,"ARG_OF_PERICENTER":95.8854,"MEAN_ANOMALY":264.2485,"EPHEMERIS_TYPE":0,"CLASSIFICATION_TYPE":"U","NORAD_CAT_ID":56049,"ELEMENT_SET_NO":999,"REV_AT_EPOCH":12044,"BSTAR":0.00026191055,"MEAN_MOTION_DOT":1.21e-6,"MEAN_MOTION_DDOT":0},{"OBJECT_NAME":"ONEWEB-0548","OBJECT_ID":"2023-043E","EPOCH":"2025-09-04T03:33:40.565088","MEAN_MOTION":13.16595189,"ECCENTRICITY":0.00022615,"INCLINATION":87.8988,"RA_OF_ASC_NODE":285.7951,"ARG_OF_PERICENTER":83.8199,"MEAN_ANOMALY":276.3189,"EPHEMERIS_TYPE":0,"CLASSIFICATION_TYPE":"U","NORAD_CAT_ID":56050,"ELEMENT_SET_NO":999,"REV_AT_EPOCH":12132,"BSTAR":-7.8132272e-5,"MEAN_MOTION_DOT":-1.7e-7,"MEAN_MOTION_DDOT":0},{"OBJECT_NAME":"ONEWEB-0549","OBJECT_ID":"2023-043F","EPOCH":"2025-09-04T04:25:04.833408","MEAN_MOTION":13.21826735,"ECCENTRICITY":0.00016331,"INCLINATION":87.9229,"RA_OF_ASC_NODE":301.0625,"ARG_OF_PERICENTER":98.6712,"MEAN_ANOMALY":261.4607,"EPHEMERIS_TYPE":0,"CLASSIFICATION_TYPE":"U","NORAD_CAT_ID":56051,"ELEMENT_SET_NO":999,"REV_AT_EPOCH":12044,"BSTAR":0.00021352661,"MEAN_MOTION_DOT":1.01e-6,"MEAN_MOTION_DDOT":0},{"OBJECT_NAME":"ONEWEB-0550","OBJECT_ID":"2023-043G","EPOCH":"2025-09-04T04:06:52.535232","MEAN_MOTION":13.21825625,"ECCENTRICITY":0.00020909,"INCLINATION":87.9228,"RA_OF_ASC_NODE":301.059,"ARG_OF_PERICENTER":94.388,"MEAN_ANOMALY":265.7493,"EPHEMERIS_TYPE":0,"CLASSIFICATION_TYPE":"U","NORAD_CAT_ID":56052,"ELEMENT_SET_NO":999,"REV_AT_EPOCH":12044,"BSTAR":-0.0003663546,"MEAN_MOTION_DOT":-1.38e-6,"MEAN_MOTION_DDOT":0},{"OBJECT_NAME":"ONEWEB-0551","OBJECT_ID":"2023-043H","EPOCH":"2025-09-04T04:18:44.489376","MEAN_MOTION":13.15549516,"ECCENTRICITY":0.00016501,"INCLINATION":87.905,"RA_OF_ASC_NODE":316.3009,"ARG_OF_PERICENTER":95.5767,"MEAN_ANOMALY":264.5551,"EPHEMERIS_TYPE":0,"CLASSIFICATION_TYPE":"U","NORAD_CAT_ID":56053,"ELEMENT_SET_NO":999,"REV_AT_EPOCH":11879,"BSTAR":0.00043325996,"MEAN_MOTION_DOT":1.76e-6,"MEAN_MOTION_DDOT":0},{"OBJECT_NAME":"ONEWEB-0552","OBJECT_ID":"2023-043J","EPOCH":"2025-09-04T03:57:49.386816","MEAN_MOTION":13.21826283,"ECCENTRICITY":0.0001746,"INCLINATION":87.9227,"RA_OF_ASC_NODE":301.069,"ARG_OF_PERICENTER":89.3624,"MEAN_ANOMALY":270.771,"EPHEMERIS_TYPE":0,"CLASSIFICATION_TYPE":"U","NORAD_CAT_ID":56054,"ELEMENT_SET_NO":999,"REV_AT_EPOCH":12044,"BSTAR":0.00018950609,"MEAN_MOTION_DOT":9.1e-7,"MEAN_MOTION_DDOT":0},{"OBJECT_NAME":"ONEWEB-0553","OBJECT_ID":"2023-043K","EPOCH":"2025-09-04T03:06:18.648000","MEAN_MOTION":13.16593927,"ECCENTRICITY":0.00022729,"INCLINATION":87.8999,"RA_OF_ASC_NODE":285.7911,"ARG_OF_PERICENTER":99.4614,"MEAN_ANOMALY":260.6774,"EPHEMERIS_TYPE":0,"CLASSIFICATION_TYPE":"U","NORAD_CAT_ID":56055,"ELEMENT_SET_NO":999,"REV_AT_EPOCH":12133,"BSTAR":3.4431072e-5,"MEAN_MOTION_DOT":2.6e-7,"MEAN_MOTION_DDOT":0},{"OBJECT_NAME":"ONEWEB-0554","OBJECT_ID":"2023-043L","EPOCH":"2025-09-04T02:48:03.617856","MEAN_MOTION":13.16593465,"ECCENTRICITY":0.00021305,"INCLINATION":87.8989,"RA_OF_ASC_NODE":285.8187,"ARG_OF_PERICENTER":88.721,"MEAN_ANOMALY":271.4165,"EPHEMERIS_TYPE":0,"CLASSIFICATION_TYPE":"U","NORAD_CAT_ID":56056,"ELEMENT_SET_NO":999,"REV_AT_EPOCH":12131,"BSTAR":0.00024384291,"MEAN_MOTION_DOT":1.06e-6,"MEAN_MOTION_DDOT":0},{"OBJECT_NAME":"ONEWEB-0555","OBJECT_ID":"2023-043M","EPOCH":"2025-09-04T03:42:46.739232","MEAN_MOTION":13.16595421,"ECCENTRICITY":0.00024163,"INCLINATION":87.8997,"RA_OF_ASC_NODE":285.7807,"ARG_OF_PERICENTER":102.9226,"MEAN_ANOMALY":257.2175,"EPHEMERIS_TYPE":0,"CLASSIFICATION_TYPE":"U","NORAD_CAT_ID":56057,"ELEMENT_SET_NO":999,"REV_AT_EPOCH":12132,"BSTAR":4.0889926e-5,"MEAN_MOTION_DOT":2.8e-7,"MEAN_MOTION_DDOT":0},{"OBJECT_NAME":"ONEWEB-0557","OBJECT_ID":"2023-043N","EPOCH":"2025-09-04T04:03:17.881344","MEAN_MOTION":13.16593904,"ECCENTRICITY":0.00032453,"INCLINATION":87.8987,"RA_OF_ASC_NODE":285.7971,"ARG_OF_PERICENTER":88.2987,"MEAN_ANOMALY":271.8516,"EPHEMERIS_TYPE":0,"CLASSIFICATION_TYPE":"U","NORAD_CAT_ID":56058,"ELEMENT_SET_NO":999,"REV_AT_EPOCH":12132,"BSTAR":0.00028309578,"MEAN_MOTION_DOT":1.21e-6,"MEAN_MOTION_DDOT":0},{"OBJECT_NAME":"ONEWEB-0558","OBJECT_ID":"2023-043P","EPOCH":"2025-09-04T03:48:42.446304","MEAN_MOTION":13.21825825,"ECCENTRICITY":0.00014993,"INCLINATION":87.9227,"RA_OF_ASC_NODE":301.0653,"ARG_OF_PERICENTER":96.8696,"MEAN_ANOMALY":263.2609,"EPHEMERIS_TYPE":0,"CLASSIFICATION_TYPE":"U","NORAD_CAT_ID":56059,"ELEMENT_SET_NO":999,"REV_AT_EPOCH":12045,"BSTAR":-0.00035787382,"MEAN_MOTION_DOT":-1.35e-6,"MEAN_MOTION_DDOT":0},{"OBJECT_NAME":"ONEWEB-0559","OBJECT_ID":"2023-043Q","EPOCH":"2025-09-04T05:21:50.708448","MEAN_MOTION":13.21825898,"ECCENTRICITY":0.00016737,"INCLINATION":87.9226,"RA_OF_ASC_NODE":301.045,"ARG_OF_PERICENTER":86.8083,"MEAN_ANOMALY":273.3242,"EPHEMERIS_TYPE":0,"CLASSIFICATION_TYPE":"U","NORAD_CAT_ID":56060,"ELEMENT_SET_NO":999,"REV_AT_EPOCH":12047,"BSTAR":-6.1322696e-5,"MEAN_MOTION_DOT":-1.2e-7,"MEAN_MOTION_DDOT":0},{"OBJECT_NAME":"ONEWEB-0566","OBJECT_ID":"2023-043R","EPOCH":"2025-09-04T05:12:45.426816","MEAN_MOTION":13.21826293,"ECCENTRICITY":0.00016246,"INCLINATION":87.9227,"RA_OF_ASC_NODE":301.0441,"ARG_OF_PERICENTER":93.1235,"MEAN_ANOMALY":267.0085,"EPHEMERIS_TYPE":0,"CLASSIFICATION_TYPE":"U","NORAD_CAT_ID":56061,"ELEMENT_SET_NO":999,"REV_AT_EPOCH":12045,"BSTAR":-0.00013614465,"MEAN_MOTION_DOT":-4.3e-7,"MEAN_MOTION_DDOT":0},{"OBJECT_NAME":"ONEWEB-0568","OBJECT_ID":"2023-043S","EPOCH":"2025-09-04T04:28:23.120544","MEAN_MOTION":13.16594844,"ECCENTRICITY":0.00021638,"INCLINATION":87.9001,"RA_OF_ASC_NODE":285.7721,"ARG_OF_PERICENTER":100.3183,"MEAN_ANOMALY":259.8192,"EPHEMERIS_TYPE":0,"CLASSIFICATION_TYPE":"U","NORAD_CAT_ID":56062,"ELEMENT_SET_NO":999,"REV_AT_EPOCH":12134,"BSTAR":0.00017797154,"MEAN_MOTION_DOT":8.1e-7,"MEAN_MOTION_DDOT":0}]
