ONEWEB-0538             
1 56047U 23043B   25247.13571221  .00000011  00000+0 -35926-5 0  9998
2 56047  87.8998 285.7914 0001729  99.8737 260.2589 13.16594296121339
ONEWEB-0546             
1 56048U 23043C   25247.12304563  .00000028  00000+0  40725-4 0  9990
2 56048  87.9008 285.7751 0002421 107.7926 252.3470 13.16594017121322
ONEWEB-0547             
1 56049U 23043D   25247.19274225  .00000121  00000+0  26191-3 0  9993
2 56049  87.9224 301.0459 0001796  95.8854 264.2485 13.21824457120441
ONEWEB-0548             
1 56050U 23043E   25247.14838617 -.00000017  00000+0 -78132-4 0  9990
2 56050  87.8988 285.7951 0002261  83.8199 276.3189 13.16595189121325
ONEWEB-0549             
1 56051U 23043F   25247.18408372  .00000101  00000+0  21353-3 0  9990
2 56051  87.9229 301.0625 0001633  98.6712 261.4607 13.21826735120444
ONEWEB-0550             
1 56052U 23043G   25247.17144138 -.00000138  00000+0 -36635-3 0  9998
2 56052  87.9228 301.0590 0002090  94.3880 265.7493 13.21825625120449
ONEWEB-0551             
1 56053U 23043H   25247.17968159  .00000176  00000+0  43326-3 0  9991
2 56053  87.9050 316.3009 0001650  95.5767 264.5551 13.15549516118797
ONEWEB-0552             
1 56054U 23043J   25247.16515494  .00000091  00000+0  18951-3 0  9993
2 56054  87.9227 301.0690 0001746  89.3624 270.7710 13.21826283120447
ONEWEB-0553             
1 56055U 23043K   25247.12938250  .00000026  00000+0  34431-4 0  9999
2 56055  87.8999 285.7911 0002272  99.4614 260.6774 13.16593927121330
ONEWEB-0554             
1 56056U 23043L   25247.11670854  .00000106  00000+0  24384-3 0  9996
2 56056  87.8989 285.8187 0002130  88.7210 271.4165 13.16593465121311
ONEWEB-0555             
1 56057U 23043M   25247.15470763  .00000028  00000+0  40890-4 0  9992
2 56057  87.8997 285.7807 0002416 102.9226 257.2175 13.16595421121320
ONEWEB-0557             
1 56058U 23043N   25247.16895696  .00000121  00000+0  28310-3 0  9996
2 56058  87.8987 285.7971 0003245  88.2987 271.8516 13.16593904121328
ONEWEB-0558             
1 56059U 23043P   25247.15882461 -.00000135  00000+0 -35787-3 0  9995
2 56059  87.9227 301.0653 0001499  96.8696 263.2609 13.21825825120454
ONEWEB-0559             
1 56060U 23043Q   25247.22350357 -.00000012  00000+0 -61323-4 0  9999
2 56060  87.9226 301.0450 0001673  86.8083 273.3242 13.21825898120470
ONEWEB-0566             
1 56061U 23043R   25247.21719244 -.00000043  00000+0 -13614-3 0  9996
2 56061  87.9227 301.0441 0001624  93.1235 267.0085 13.21826293120451
ONEWEB-0568             
1 56062U 23043S   25247.18637871  .00000081  00000+0  17797-3 0  9994
2 56062  87.9001 285.7721 0002163 100.3183 259.8192 13.16594844121348
